{
    "links": {
        "self": "http://www.neowsapp.com/rest/v1/neo/3728897?api_key=iIulBulltgU6a56xZRHN4H3l9WmuAYTsLGpBGhQ2"
    },
    "id": "3728897",
    "neo_reference_id": "3728897",
    "name": "(2015 TB)",
    "designation": "2015 TB",
    "nasa_jpl_url": "http://ssd.jpl.nasa.gov/sbdb.cgi?sstr=3728897",
    "absolute_magnitude_h": 27.4,
    "estimated_diameter": {
        "kilometers": {
            "estimated_diameter_min": 0.0088014652,
            "estimated_diameter_max": 0.0196806745
        },
        "meters": {
            "estimated_diameter_min": 8.801465209,
            "estimated_diameter_max": 19.6806745089
        },
        "miles": {
            "estimated_diameter_min": 0.0054689752,
            "estimated_diameter_max": 0.0122290004
        },
        "feet": {
            "estimated_diameter_min": 28.8761991163,
            "estimated_diameter_max": 64.5691441559
        }
    },
    "is_potentially_hazardous_asteroid": false,
    "close_approach_data": [
        {
            "close_approach_date": "2015-09-23",
            "close_approach_date_full": "2015-Sep-23 16:29",
            "epoch_date_close_approach": 1443025740000,
            "relative_velocity": {
                "kilometers_per_second": "3.2417061253",
                "kilometers_per_hour": "11670.1420510115",
                "miles_per_hour": "7251.372431641"
            },
            "miss_distance": {
                "astronomical": "0.0286167374",
                "lunar": "11.1319108486",
                "kilometers": "4281002.961389338",
                "miles": "2660091.8901073444"
            },
            "orbiting_body": "Earth"
        },
        {
            "close_approach_date": "2025-10-18",
            "close_approach_date_full": "2025-Oct-18 22:15",
            "epoch_date_close_approach": 1760825700000,
            "relative_velocity": {
                "kilometers_per_second": "9.8153419736",
                "kilometers_per_hour": "35335.2311048326",
                "miles_per_hour": "21955.9384606667"
            },
            "miss_distance": {
                "astronomical": "0.2434791823",
                "lunar": "94.7134019147",
                "kilometers": "36423967.061421701",
                "miles": "22632803.6349174338"
            },
            "orbiting_body": "Earth"
        },
        {
            "close_approach_date": "2038-07-27",
            "close_approach_date_full": "2038-Jul-27 14:32",
            "epoch_date_close_approach": 2163853920000,
            "relative_velocity": {
                "kilometers_per_second": "10.8901422972",
                "kilometers_per_hour": "39204.512269762",
                "miles_per_hour": "24360.1593045085"
            },
            "miss_distance": {
                "astronomical": "0.2858191363",
                "lunar": "111.1836440207",
                "kilometers": "42757933.995719681",
                "miles": "26568548.1849903578"
            },
            "orbiting_body": "Earth"
        }
    ],
    "orbital_data": {
        "orbit_id": "7",
        "orbit_determination_date": "2017-04-06 08:31:40",
        "first_observation_date": "2015-10-01",
        "last_observation_date": "2015-10-17",
        "data_arc_in_days": 16,
        "observations_used": 58,
        "orbit_uncertainty": "7",
        "minimum_orbit_intersection": ".0274304",
        "jupiter_tisserand_invariant": "5.061",
        "epoch_osculation": "2459000.5",
        "eccentricity": ".1921065054281009",
        "semi_major_axis": "1.271561429319017",
        "inclination": "3.002009322153022",
        "ascending_node_longitude": "190.8300643500681",
        "orbital_period": "523.7263750055406",
        "perihelion_distance": "1.027286206695379",
        "perihelion_argument": "160.7326207366527",
        "aphelion_distance": "1.515836651942654",
        "perihelion_time": "2458852.690129820287",
        "mean_anomaly": "101.6018207296388",
        "mean_motion": ".687381841321609",
        "equinox": "J2000",
        "orbit_class": {
            "orbit_class_type": "AMO",
            "orbit_class_description": "Near-Earth asteroid orbits similar to that of 1221 Amor",
            "orbit_class_range": "1.017 AU < q (perihelion) < 1.3 AU"
        }
    },
    "is_sentry_object": false
}